[{"OBJECT_NAME":"STARLINK-3046","OBJECT_ID":"2021-082AR","EPOCH":"2026-03-10T00:00:02.999808","MEAN_MOTION":14.98309987,"ECCENTRICITY":0.00028659,"INCLINATION":69.9994,"RA_OF_ASC_NODE":273.6796,"ARG_OF_PERICENTER":274.4657,"MEAN_ANOMALY":257.0159,"EPHEMERIS_TYPE":0,"CLASSIFICATION_TYPE":"U","NORAD_CAT_ID":49169,"ELEMENT_SET_NO":999,"REV_AT_EPOCH":551,"BSTAR":0.0038735987,"MEAN_MOTION_DOT":0.00046409,"MEAN_MOTION_DDOT":0},{"OBJECT_NAME":"FENGYUN 1C DEB","OBJECT_ID":"1999-025GH","EPOCH":"2026-03-09T17:42:46.092672","MEAN_MOTION":14.3443525,"ECCENTRICITY":0.02859245,"INCLINATION":98.7067,"RA_OF_ASC_NODE":156.1493,"ARG_OF_PERICENTER":102.2038,"MEAN_ANOMALY":27.2455,"EPHEMERIS_TYPE":0,"CLASSIFICATION_TYPE":"U","NORAD_CAT_ID":29887,"ELEMENT_SET_NO":999,"REV_AT_EPOCH":99221,"BSTAR":0.00089189176,"MEAN_MOTION_DOT":3.936e-5,"MEAN_MOTION_DDOT":0}]
